OBJECT B                
1 51825U 22019B   24108.89281633  .00021603  00000+0  99800-3 0  9990
2 51825  97.4327 181.0342 0016317  92.8565 267.4538 15.20087656118068
